STARLINK-3913           
1 52485U 22049AL  26068.37889352 -.00001120  00000+0 -52301-4 0  9998
2 52485  53.2185  50.5147 0001477  90.2684 269.8478 15.08829936212347
DISKSAT A               
1 67222U 25305D   26068.54789610  .00013824  00000+0  90452-3 0  9996
2 67222  45.0023 251.6019 0004082 318.1929  41.8634 15.07741062 12266
