[{"OBJECT_NAME":"STARLINK-3913","OBJECT_ID":"2022-049AL","EPOCH":"2026-03-09T09:05:36.400128","MEAN_MOTION":15.08829936,"ECCENTRICITY":0.00014775,"INCLINATION":53.2185,"RA_OF_ASC_NODE":50.5147,"ARG_OF_PERICENTER":90.2684,"MEAN_ANOMALY":269.8478,"EPHEMERIS_TYPE":0,"CLASSIFICATION_TYPE":"U","NORAD_CAT_ID":52485,"ELEMENT_SET_NO":999,"REV_AT_EPOCH":21234,"BSTAR":-5.2300849e-5,"MEAN_MOTION_DOT":-1.12e-5,"MEAN_MOTION_DDOT":0},{"OBJECT_NAME":"DISKSAT A","OBJECT_ID":"2025-305D","EPOCH":"2026-03-09T13:08:58.223040","MEAN_MOTION":15.07741062,"ECCENTRICITY":0.0004082,"INCLINATION":45.0023,"RA_OF_ASC_NODE":251.6019,"ARG_OF_PERICENTER":318.1929,"MEAN_ANOMALY":41.8634,"EPHEMERIS_TYPE":0,"CLASSIFICATION_TYPE":"U","NORAD_CAT_ID":67222,"ELEMENT_SET_NO":999,"REV_AT_EPOCH":1226,"BSTAR":0.00090452,"MEAN_MOTION_DOT":0.00013824,"MEAN_MOTION_DDOT":0}]
